{
  "type": "FeatureCollection",
  "features": [
    {
      "type": "Feature",
      "properties": {
        "norad_id": 66621,
        "name": "STARLINK-35847",
        "group": "last-30-days",
        "lat": 34.14955585917247,
        "lon": 3.3605743612970573,
        "alt_km": 342.03690876834935,
        "timestamp": "2025-12-07T05:38:08.685644+00:00",
        "meta_object_name": "STARLINK-35847",
        "meta_object_id": "2025-271E",
        "meta_epoch": "2025-12-06T14:00:01.999872",
        "meta_mean_motion": 15.74156603,
        "meta_eccentricity": 0.00010648,
        "meta_inclination": 53.1579,
        "meta_ra_of_asc_node": 217.1646,
        "meta_arg_of_pericenter": 97.3895,
        "meta_mean_anomaly": 303.9533,
        "meta_ephemeris_type": 0,
        "meta_classification_type": "U",
        "meta_norad_cat_id": 66621,
        "meta_element_set_no": 999,
        "meta_rev_at_epoch": 325,
        "meta_bstar": 0.00019447,
        "meta_mean_motion_dot": 0.00027906,
        "meta_mean_motion_ddot": 0,
        "tle_line1": "1 66621U 25271E   25340.58335648  .00027906  00000+0  19447-3 0  9995",
        "tle_line2": "2 66621  53.1579 217.1646 0001064  97.3895 303.9533 15.74156603  3256"
      },
      "geometry": {
        "type": "Point",
        "coordinates": [
          3.3605743612970573,
          34.14955585917247
        ]
      }
    },
    {
      "type": "Feature",
      "properties": {
        "norad_id": 66622,
        "name": "STARLINK-35950",
        "group": "last-30-days",
        "lat": 53.095938028730274,
        "lon": -59.134603405881556,
        "alt_km": 338.7463914288601,
        "timestamp": "2025-12-07T05:38:08.685654+00:00",
        "meta_object_name": "STARLINK-35950",
        "meta_object_id": "2025-271F",
        "meta_epoch": "2025-12-06T14:00:01.999872",
        "meta_mean_motion": 15.74152255,
        "meta_eccentricity": 0.00014646,
        "meta_inclination": 53.158,
        "meta_ra_of_asc_node": 217.2642,
        "meta_arg_of_pericenter": 90.3222,
        "meta_mean_anomaly": 263.7429,
        "meta_ephemeris_type": 0,
        "meta_classification_type": "U",
        "meta_norad_cat_id": 66622,
        "meta_element_set_no": 999,
        "meta_rev_at_epoch": 325,
        "meta_bstar": 0.00030667565,
        "meta_mean_motion_dot": 0.0004445,
        "meta_mean_motion_ddot": 0,
        "tle_line1": "1 66622U 25271F   25340.58335648  .00044450  00000+0  30668-3 0  9997",
        "tle_line2": "2 66622  53.1580 217.2642 0001464  90.3222 263.7429 15.74152255  3253"
      },
      "geometry": {
        "type": "Point",
        "coordinates": [
          -59.134603405881556,
          53.095938028730274
        ]
      }
    },
    {
      "type": "Feature",
      "properties": {
        "norad_id": 66623,
        "name": "STARLINK-35920",
        "group": "last-30-days",
        "lat": 53.09119231263164,
        "lon": -52.65701722199341,
        "alt_km": 338.6999343094585,
        "timestamp": "2025-12-07T05:38:08.685668+00:00",
        "meta_object_name": "STARLINK-35920",
        "meta_object_id": "2025-271G",
        "meta_epoch": "2025-12-06T14:00:01.999872",
        "meta_mean_motion": 15.74111426,
        "meta_eccentricity": 0.0001211,
        "meta_inclination": 53.1575,
        "meta_ra_of_asc_node": 217.2564,
        "meta_arg_of_pericenter": 125.1816,
        "meta_mean_anomaly": 232.6674,
        "meta_ephemeris_type": 0,
        "meta_classification_type": "U",
        "meta_norad_cat_id": 66623,
        "meta_element_set_no": 999,
        "meta_rev_at_epoch": 325,
        "meta_bstar": 0.0012250247,
        "meta_mean_motion_dot": 0.00182096,
        "meta_mean_motion_ddot": 0,
        "tle_line1": "1 66623U 25271G   25340.58335648  .00182096  00000+0  12250-2 0  9993",
        "tle_line2": "2 66623  53.1575 217.2564 0001211 125.1816 232.6674 15.74111426  3259"
      },
      "geometry": {
        "type": "Point",
        "coordinates": [
          -52.65701722199341,
          53.09119231263164
        ]
      }
    },
    {
      "type": "Feature",
      "properties": {
        "norad_id": 66624,
        "name": "STARLINK-35927",
        "group": "last-30-days",
        "lat": 53.1378519848798,
        "lon": -55.847579038137795,
        "alt_km": 339.0532829719623,
        "timestamp": "2025-12-07T05:38:08.685680+00:00",
        "meta_object_name": "STARLINK-35927",
        "meta_object_id": "2025-271H",
        "meta_epoch": "2025-12-06T14:00:01.999872",
        "meta_mean_motion": 15.74092298,
        "meta_eccentricity": 4.731e-05,
        "meta_inclination": 53.158,
        "meta_ra_of_asc_node": 217.2603,
        "meta_arg_of_pericenter": 86.4979,
        "meta_mean_anomaly": 269.4596,
        "meta_ephemeris_type": 0,
        "meta_classification_type": "U",
        "meta_norad_cat_id": 66624,
        "meta_element_set_no": 999,
        "meta_rev_at_epoch": 325,
        "meta_bstar": 0.0012854436,
        "meta_mean_motion_dot": 0.00191161,
        "meta_mean_motion_ddot": 0,
        "tle_line1": "1 66624U 25271H   25340.58335648  .00191161  00000+0  12854-2 0  9997",
        "tle_line2": "2 66624  53.1580 217.2603 0000473  86.4979 269.4596 15.74092298  3254"
      },
      "geometry": {
        "type": "Point",
        "coordinates": [
          -55.847579038137795,
          53.1378519848798
        ]
      }
    },
    {
      "type": "Feature",
      "properties": {
        "norad_id": 66625,
        "name": "STARLINK-35929",
        "group": "last-30-days",
        "lat": 52.96427904024658,
        "lon": -49.554307628125024,
        "alt_km": 338.96140094688326,
        "timestamp": "2025-12-07T05:38:08.685690+00:00",
        "meta_object_name": "STARLINK-35929",
        "meta_object_id": "2025-271J",
        "meta_epoch": "2025-12-06T14:00:01.999872",
        "meta_mean_motion": 15.74153174,
        "meta_eccentricity": 0.00011357,
        "meta_inclination": 53.1579,
        "meta_ra_of_asc_node": 217.2524,
        "meta_arg_of_pericenter": 99.6254,
        "meta_mean_anomaly": 260.1838,
        "meta_ephemeris_type": 0,
        "meta_classification_type": "U",
        "meta_norad_cat_id": 66625,
        "meta_element_set_no": 999,
        "meta_rev_at_epoch": 325,
        "meta_bstar": 0.00035463718,
        "meta_mean_motion_dot": 0.00051546,
        "meta_mean_motion_ddot": 0,
        "tle_line1": "1 66625U 25271J   25340.58335648  .00051546  00000+0  35464-3 0  9993",
        "tle_line2": "2 66625  53.1579 217.2524 0001135  99.6254 260.1838 15.74153174  3251"
      },
      "geometry": {
        "type": "Point",
        "coordinates": [
          -49.554307628125024,
          52.96427904024658
        ]
      }
    },
    {
      "type": "Feature",
      "properties": {
        "norad_id": 66626,
        "name": "STARLINK-35902",
        "group": "last-30-days",
        "lat": 52.74210493369738,
        "lon": -46.30047663959008,
        "alt_km": 339.08985988943004,
        "timestamp": "2025-12-07T05:38:08.685699+00:00",
        "meta_object_name": "STARLINK-35902",
        "meta_object_id": "2025-271K",
        "meta_epoch": "2025-12-06T14:00:01.999872",
        "meta_mean_motion": 15.74242537,
        "meta_eccentricity": 0.00010561,
        "meta_inclination": 53.1578,
        "meta_ra_of_asc_node": 217.2478,
        "meta_arg_of_pericenter": 101.5459,
        "meta_mean_anomaly": 260.1573,
        "meta_ephemeris_type": 0,
        "meta_classification_type": "U",
        "meta_norad_cat_id": 66626,
        "meta_element_set_no": 999,
        "meta_rev_at_epoch": 325,
        "meta_bstar": -0.00021287478,
        "meta_mean_motion_dot": -0.0003176,
        "meta_mean_motion_ddot": 0,
        "tle_line1": "1 66626U 25271K   25340.58335648 -.00031760  00000+0 -21287-3 0  9990",
        "tle_line2": "2 66626  53.1578 217.2478 0001056 101.5459 260.1573 15.74242537  3259"
      },
      "geometry": {
        "type": "Point",
        "coordinates": [
          -46.30047663959008,
          52.74210493369738
        ]
      }
    },
    {
      "type": "Feature",
      "properties": {
        "norad_id": 66627,
        "name": "STARLINK-35904",
        "group": "last-30-days",
        "lat": 52.4311512170632,
        "lon": -43.08117053739638,
        "alt_km": 339.1532375888737,
        "timestamp": "2025-12-07T05:38:08.685711+00:00",
        "meta_object_name": "STARLINK-35904",
        "meta_object_id": "2025-271L",
        "meta_epoch": "2025-12-06T14:00:01.999872",
        "meta_mean_motion": 15.74232189,
        "meta_eccentricity": 8.223e-05,
        "meta_inclination": 53.1577,
        "meta_ra_of_asc_node": 217.2437,
        "meta_arg_of_pericenter": 115.4404,
        "meta_mean_anomaly": 248.1877,
        "meta_ephemeris_type": 0,
        "meta_classification_type": "U",
        "meta_norad_cat_id": 66627,
        "meta_element_set_no": 999,
        "meta_rev_at_epoch": 309,
        "meta_bstar": 0.00014590286,
        "meta_mean_motion_dot": 0.00020831,
        "meta_mean_motion_ddot": 0,
        "tle_line1": "1 66627U 25271L   25340.58335648  .00020831  00000+0  14590-3 0  9995",
        "tle_line2": "2 66627  53.1577 217.2437 0000822 115.4404 248.1877 15.74232189  3095"
      },
      "geometry": {
        "type": "Point",
        "coordinates": [
          -43.08117053739638,
          52.4311512170632
        ]
      }
    }
  ]
}